ONEWEB-0389             
1 50469U 21132A   24301.04949301  .00000201  00000+0  48347-3 0  9994
2 50469  87.9077 125.0249 0001133  90.5391 269.5870 13.17652026140603
ONEWEB-0390             
1 50470U 21132B   24301.05119089  .00000169  00000+0  40308-3 0  9991
2 50470  87.9077 125.0319 0001376  73.3313 286.7970 13.17650925140603
ONEWEB-0391             
1 50471U 21132C   24300.90102177  .00000060  00000+0  12261-3 0  9992
2 50471  87.9084 125.0554 0000542 100.2033 259.9160 13.17648839139293
ONEWEB-0392             
1 50472U 21132D   24301.23514490 -.00001708  00000+0 -44333-2 0  9991
2 50472  87.9066 124.9704 0000372 192.0936 168.0187 13.17637763140667
ONEWEB-0393             
1 50473U 21132E   24300.90450243  .00000066  00000+0  13607-3 0  9995
2 50473  87.9077 125.0257 0001365  91.8292 268.2996 13.17650268139326
ONEWEB-0394             
1 50474U 21132F   24301.19103231  .00000004  00000+0 -21819-4 0  9998
2 50474  87.9061  94.4546 0001489  96.1627 263.9675 13.18682884144059
ONEWEB-0395             
1 50475U 21132G   24301.00034621  .00000418  00000+0  11426-2 0  9994
2 50475  87.8900 140.2616 0001204  78.6732 281.4531 13.11421611138585
ONEWEB-0396             
1 50476U 21132H   24300.88120044  .00000108  00000+0  24052-3 0  9991
2 50476  87.9066  94.5202 0001521  99.6379 260.4925 13.18687897144054
ONEWEB-0397             
1 50477U 21132J   24301.12307995  .00000085  00000+0  18286-3 0  9998
2 50477  87.9067  94.4728 0001653 100.3860 259.7459 13.18685369144065
ONEWEB-0398             
1 50478U 21132K   24301.12073448 -.00000466  00000+0 -13514-2 0  9995
2 50478  87.8891 140.2119 0001422  66.3405 293.7872 13.11417031138505
ONEWEB-0399             
1 50479U 21132L   24301.10717309  .00000023  00000+0  28569-4 0  9990
2 50479  87.8894 140.2335 0001550  95.7905 264.3400 13.11415330138491
ONEWEB-0400             
1 50480U 21132M   24300.87488409  .00000099  00000+0  21866-3 0  9996
2 50480  87.9062  94.5214 0001532  83.1395 276.9912 13.18683785144034
ONEWEB-0401             
1 50481U 21132N   24300.99344216  .00000032  00000+0  47991-4 0  9992
2 50481  87.9059  94.4926 0001790  99.5659 260.5675 13.18685938144059
ONEWEB-0402             
1 50482U 21132P   24301.41389433 -.00004219  00000+0 -10736-1 0  9998
2 50482  87.9061  94.4065 0002300 102.2451 257.8938 13.18700873144133
ONEWEB-0403             
1 50483U 21132Q   24301.13412314  .00000063  00000+0  12736-3 0  9998
2 50483  87.9063  94.4721 0001454  96.0894 264.0403 13.18690050144058
ONEWEB-0404             
1 50484U 21132R   24301.08853444  .00000591  00000+0  16324-2 0  9998
2 50484  87.8903 140.2199 0001165  91.8332 268.2929 13.11415551138572
ONEWEB-0405             
1 50485U 21132S   24301.14992445  .00000011  00000+0 -36271-5 0  9995
2 50485  87.9061  94.4588 0001837 103.4008 256.7329 13.18683826144467
ONEWEB-0406             
1 50486U 21132T   24300.98710920 -.00000334  00000+0 -87982-3 0  9995
2 50486  87.9064  94.5057 0000840 113.1516 246.9705 13.18684525144071
ONEWEB-0407             
1 50487U 21132U   24301.13255748  .00000049  00000+0  92262-4 0  9995
2 50487  87.9060  94.4725 0001647  99.6205 260.5113 13.18684008144035
ONEWEB-0409             
1 50488U 21132V   24300.85793243  .00000563  00000+0  15540-2 0  9994
2 50488  87.8895 140.2508 0001181  75.9971 284.1288 13.11418387138441
ONEWEB-0412             
1 50489U 21132W   24301.19736171  .00000030  00000+0  44289-4 0  9993
2 50489  87.9065  94.4656 0001954 103.2610 256.8740 13.18683183144125
ONEWEB-0413             
1 50490U 21132X   24301.12621536 -.00000303  00000+0 -80018-3 0  9990
2 50490  87.9065  94.4921 0001917  96.9198 263.2152 13.18685342144061
ONEWEB-0414             
1 50491U 21132Y   24301.18788342  .00000082  00000+0  17526-3 0  9992
2 50491  87.9062  94.4533 0001660 102.3845 257.7473 13.18684249144108
ONEWEB-0417             
1 50492U 21132Z   24301.19578090  .00000062  00000+0  12372-3 0  9993
2 50492  87.9069  94.4637 0001361  95.3376 264.7912 13.18683372144088
ONEWEB-0418             
1 50493U 21132AA  24301.12926520  .00000022  00000+0  24241-4 0  9997
2 50493  87.9063  94.4749 0001117 100.0154 260.1104 13.18686273144125
ONEWEB-0419             
1 50494U 21132AB  24301.14676929  .00000068  00000+0  13936-3 0  9993
2 50494  87.9059  94.4837 0001338  84.0787 276.0497 13.18685571144050
ONEWEB-0420             
1 50495U 21132AC  24301.18944734  .00000090  00000+0  19569-3 0  9993
2 50495  87.9061  94.4842 0001862  89.5949 270.5397 13.18687548144067
ONEWEB-0421             
1 50496U 21132AD  24301.18312197  .00000130  00000+0  29576-3 0  9990
2 50496  87.9069  94.4618 0001701 104.3171 255.8150 13.18688444144106
ONEWEB-0424             
1 50497U 21132AE  24301.14204678  .00001349  00000+0  33880-2 0  9996
2 50497  87.9060  94.4692 0001635  73.3862 286.7450 13.18678150144107
ONEWEB-0426             
1 50498U 21132AF  24301.17996731  .00000067  00000+0  13832-3 0  9990
2 50498  87.9062  94.4740 0001317 117.4340 242.6926 13.18685219144060
ONEWEB-0427             
1 50499U 21132AG  24301.14045993  .00000106  00000+0  23542-3 0  9996
2 50499  87.9060  94.4606 0001327  93.7705 266.3578 13.18684324144097
ONEWEB-0429             
1 50500U 21132AH  24301.12779599  .00000000  00000+0 -32520-4 0  9994
2 50500  87.9068  94.4773 0001805  91.5975 268.5364 13.18683101144054
ONEWEB-0430             
1 50501U 21132AJ  24300.88913130  .00001659  00000+0  41752-2 0  9993
2 50501  87.9063  94.5256 0001801  78.7172 281.4162 13.18679276142774
ONEWEB-0432             
1 50502U 21132AK  24301.14835983  .00000139  00000+0  31966-3 0  9992
2 50502  87.9060  94.4646 0000687  63.1682 296.9520 13.18693243144062
ONEWEB-0440             
1 50503U 21132AL  24301.13572327  .00000097  00000+0  21218-3 0  9994
2 50503  87.9066  94.4600 0002000 100.9219 259.2138 13.18686419144048
ONEWEB-0450             
1 50504U 21132AM  24301.12953111  .00000010  00000+0 -83867-5 0  9994
2 50504  87.9066  94.4897 0001882  84.8241 275.3105 13.18687237144074
ONEWEB-0410             
1 51622U 22012A   24300.76430489  .00000034  00000+0  53859-4 0  9993
2 51622  87.9072 125.0587 0000936 155.9932 204.1243 13.17648433134892
ONEWEB-0411             
1 51623U 22012B   24300.98108139  .00000712  00000+0  20026-2 0  9993
2 51623  87.8925 155.3595 0001727  58.7388 301.3908 13.10371759132228
ONEWEB-0415             
1 51624U 22012C   24301.13047450  .00000741  00000+0  20876-2 0  9995
2 51624  87.8919 155.3457 0001516  67.6452 292.4836 13.10373894132240
ONEWEB-0416             
1 51625U 22012D   24300.98937547  .00000456  00000+0  12706-2 0  9999
2 51625  87.8924 155.3763 0001497  78.8107 281.3189 13.10371085132277
ONEWEB-0422             
1 51626U 22012E   24301.07821454 -.00000030  00000+0 -10944-3 0  9993
2 51626  87.9072 124.9987 0002414  85.7171 274.4236 13.17649626136323
ONEWEB-0423             
1 51627U 22012F   24300.76769195  .00000096  00000+0  21491-3 0  9991
2 51627  87.9074 125.0633 0001644  91.5795 268.5525 13.17651817134897
ONEWEB-0425             
1 51628U 22012G   24300.84660694 -.00000290  00000+0 -86693-3 0  9998
2 51628  87.8920 155.3836 0001371  94.8446 265.2838 13.10368862132251
ONEWEB-0428             
1 51629U 22012H   24300.97943309  .00000677  00000+0  19030-2 0  9997
2 51629  87.8925 155.3745 0001765  75.6499 284.4825 13.10372559132222
ONEWEB-0431             
1 51630U 22012J   24301.33117584 -.00000290  00000+0 -86757-3 0  9992
2 51630  87.8921 155.2932 0001933  62.6647 297.4677 13.10375219132332
ONEWEB-0434             
1 51631U 22012K   24300.84995350 -.00000372  00000+0 -11033-2 0  9998
2 51631  87.8922 155.4126 0001663  84.2505 275.8812 13.10371780132255
ONEWEB-0435             
1 51632U 22012L   24301.08729630 -.00000560  00000+0 -16402-2 0  9996
2 51632  87.8924 155.3573 0002006  81.3758 278.7597 13.10371412132268
ONEWEB-0436             
1 51633U 22012M   24301.51859048 -.00004359  00000+0 -11262-1 0  9990
2 51633  87.9071 124.9129 0001767  83.4393 276.6940 13.17670285136263
ONEWEB-0438             
1 51634U 22012N   24300.99434877  .00000099  00000+0  24788-3 0  9995
2 51634  87.8922 155.3758 0001378  87.5436 272.5849 13.10368546132294
ONEWEB-0439             
1 51635U 22012P   24300.99766685 -.00000054  00000+0 -19131-3 0  9990
2 51635  87.8922 155.3615 0001596  82.6167 277.5141 13.10369703132269
ONEWEB-0442             
1 51636U 22012Q   24301.05540103  .00000147  00000+0  34535-3 0  9990
2 51636  87.9076 125.0447 0000828  91.0441 269.0786 13.17651785136192
ONEWEB-0443             
1 51637U 22012R   24300.77109148  .00000057  00000+0  11253-3 0  9991
2 51637  87.9076 125.1113 0001700 100.7050 259.4273 13.17649851134911
ONEWEB-0444             
1 51638U 22012S   24300.98771932  .00000436  00000+0  12117-2 0  9991
2 51638  87.8919 155.3781 0001699  83.1869 276.9452 13.10369879132285
ONEWEB-0445             
1 51639U 22012T   24301.08563310 -.00000591  00000+0 -17307-2 0  9993
2 51639  87.8914 155.3251 0001310  76.5045 283.6228 13.10373910132293
ONEWEB-0446             
1 51640U 22012U   24300.98605815  .00000575  00000+0  16097-2 0  9995
2 51640  87.8924 155.3806 0001358  71.3015 288.8259 13.10371544132285
ONEWEB-0448             
1 51641U 22012V   24300.83831903  .00000335  00000+0  92482-3 0  9996
2 51641  87.8923 155.4104 0001698  82.7328 277.3992 13.10370437132228
ONEWEB-0449             
1 51642U 22012W   24301.07236575  .00000084  00000+0  20446-3 0  9990
2 51642  87.8916 155.3520 0001310  88.5397 271.5880 13.10369596132274
ONEWEB-0451             
1 51643U 22012X   24300.90776459  .00000094  00000+0  20764-3 0  9996
2 51643  87.9068 125.0292 0001591  89.6645 270.4669 13.17651386134872
ONEWEB-0452             
1 51644U 22012Y   24300.90607013  .00000095  00000+0  21144-3 0  9990
2 51644  87.9073 125.0777 0001561 102.2271 257.9036 13.17647850134881
